{
  "type": "FeatureCollection",
  "features": [
    {
      "type": "Feature",
      "properties": {
        "norad_id": 66514,
        "name": "SENTINEL-6B",
        "group": "last-30-days",
        "lat": -45.97151948095205,
        "lon": 127.32831644152536,
        "alt_km": 1336.6958942448682,
        "timestamp": "2025-12-16T10:53:44.204371+00:00",
        "meta_object_name": "SENTINEL-6B",
        "meta_object_id": "2025-264A",
        "meta_epoch": "2025-12-12T06:01:21.430272",
        "meta_mean_motion": 12.81479576,
        "meta_eccentricity": 0.0007847,
        "meta_inclination": 66.0385,
        "meta_ra_of_asc_node": 163.4531,
        "meta_arg_of_pericenter": 270.1745,
        "meta_mean_anomaly": 89.8371,
        "meta_ephemeris_type": 0,
        "meta_classification_type": "U",
        "meta_norad_cat_id": 66514,
        "meta_element_set_no": 999,
        "meta_rev_at_epoch": 322,
        "meta_bstar": 0.00018864317,
        "meta_mean_motion_dot": -1.7e-07,
        "meta_mean_motion_ddot": 0,
        "tle_line1": "1 66514U 25264A   25346.25094248 -.00000017  00000+0  18864-3 0  9993",
        "tle_line2": "2 66514  66.0385 163.4531 0007847 270.1745  89.8371 12.81479576  3220"
      },
      "geometry": {
        "type": "Point",
        "coordinates": [
          127.32831644152536,
          -45.97151948095205
        ]
      }
    },
    {
      "type": "Feature",
      "properties": {
        "norad_id": 66516,
        "name": "STARLINK-35924",
        "group": "last-30-days",
        "lat": -15.772899613343217,
        "lon": -129.64105339141554,
        "alt_km": 445.01532428508835,
        "timestamp": "2025-12-16T10:53:44.204420+00:00",
        "meta_object_name": "STARLINK-35924",
        "meta_object_id": "2025-265A",
        "meta_epoch": "2025-12-15T22:00:01.999584",
        "meta_mean_motion": 15.40699631,
        "meta_eccentricity": 0.00014271,
        "meta_inclination": 43.001,
        "meta_ra_of_asc_node": 35.8116,
        "meta_arg_of_pericenter": 255.3019,
        "meta_mean_anomaly": 204.4608,
        "meta_ephemeris_type": 0,
        "meta_classification_type": "U",
        "meta_norad_cat_id": 66516,
        "meta_element_set_no": 999,
        "meta_rev_at_epoch": 548,
        "meta_bstar": 0.0003478071,
        "meta_mean_motion_dot": 0.00014252,
        "meta_mean_motion_ddot": 0,
        "tle_line1": "1 66516U 25265A   25349.91668981  .00014252  00000+0  34781-3 0  9994",
        "tle_line2": "2 66516  43.0010  35.8116 0001427 255.3019 204.4608 15.40699631  5482"
      },
      "geometry": {
        "type": "Point",
        "coordinates": [
          -129.64105339141554,
          -15.772899613343217
        ]
      }
    },
    {
      "type": "Feature",
      "properties": {
        "norad_id": 66517,
        "name": "STARLINK-35937",
        "group": "last-30-days",
        "lat": 11.443717459670893,
        "lon": 44.8398878863551,
        "alt_km": 412.88174626816635,
        "timestamp": "2025-12-16T10:53:44.204437+00:00",
        "meta_object_name": "STARLINK-35937",
        "meta_object_id": "2025-265B",
        "meta_epoch": "2025-12-15T13:10:50.395296",
        "meta_mean_motion": 15.5058998,
        "meta_eccentricity": 0.00014114,
        "meta_inclination": 43.0002,
        "meta_ra_of_asc_node": 37.5875,
        "meta_arg_of_pericenter": 274.846,
        "meta_mean_anomaly": 85.2239,
        "meta_ephemeris_type": 0,
        "meta_classification_type": "U",
        "meta_norad_cat_id": 66517,
        "meta_element_set_no": 999,
        "meta_rev_at_epoch": 419,
        "meta_bstar": 0.0012329825,
        "meta_mean_motion_dot": 0.00072694,
        "meta_mean_motion_ddot": 0,
        "tle_line1": "1 66517U 25265B   25349.54919439  .00072694  00000+0  12330-2 0  9990",
        "tle_line2": "2 66517  43.0002  37.5875 0001411 274.8460  85.2239 15.50589980  4192"
      },
      "geometry": {
        "type": "Point",
        "coordinates": [
          44.8398878863551,
          11.443717459670893
        ]
      }
    },
    {
      "type": "Feature",
      "properties": {
        "norad_id": 66518,
        "name": "STARLINK-35962",
        "group": "last-30-days",
        "lat": 12.47121502351258,
        "lon": 46.01607458898612,
        "alt_km": 411.37584873786454,
        "timestamp": "2025-12-16T10:53:44.204451+00:00",
        "meta_object_name": "STARLINK-35962",
        "meta_object_id": "2025-265C",
        "meta_epoch": "2025-12-14T10:53:57.808320",
        "meta_mean_motion": 15.50609594,
        "meta_eccentricity": 0.00017695,
        "meta_inclination": 43.0014,
        "meta_ra_of_asc_node": 43.9914,
        "meta_arg_of_pericenter": 290.7607,
        "meta_mean_anomaly": 69.3063,
        "meta_ephemeris_type": 0,
        "meta_classification_type": "U",
        "meta_norad_cat_id": 66518,
        "meta_element_set_no": 999,
        "meta_rev_at_epoch": 402,
        "meta_bstar": 0.0018445082,
        "meta_mean_motion_dot": 0.00109513,
        "meta_mean_motion_ddot": 0,
        "tle_line1": "1 66518U 25265C   25348.45414130  .00109513  00000+0  18445-2 0  9992",
        "tle_line2": "2 66518  43.0014  43.9914 0001769 290.7607  69.3063 15.50609594  4021"
      },
      "geometry": {
        "type": "Point",
        "coordinates": [
          46.01607458898612,
          12.47121502351258
        ]
      }
    },
    {
      "type": "Feature",
      "properties": {
        "norad_id": 66519,
        "name": "STARLINK-35931",
        "group": "last-30-days",
        "lat": 14.155475277371014,
        "lon": 47.98602850430421,
        "alt_km": 412.369975654422,
        "timestamp": "2025-12-16T10:53:44.204462+00:00",
        "meta_object_name": "STARLINK-35931",
        "meta_object_id": "2025-265D",
        "meta_epoch": "2025-12-15T13:09:50.374080",
        "meta_mean_motion": 15.50650168,
        "meta_eccentricity": 0.00049678,
        "meta_inclination": 43.0015,
        "meta_ra_of_asc_node": 37.5821,
        "meta_arg_of_pericenter": 281.452,
        "meta_mean_anomaly": 78.5782,
        "meta_ephemeris_type": 0,
        "meta_classification_type": "U",
        "meta_norad_cat_id": 66519,
        "meta_element_set_no": 999,
        "meta_rev_at_epoch": 419,
        "meta_bstar": 0.0013394698,
        "meta_mean_motion_dot": 0.00079268,
        "meta_mean_motion_ddot": 0,
        "tle_line1": "1 66519U 25265D   25349.54849970  .00079268  00000+0  13395-2 0  9990",
        "tle_line2": "2 66519  43.0015  37.5821 0004967 281.4520  78.5782 15.50650168  4194"
      },
      "geometry": {
        "type": "Point",
        "coordinates": [
          47.98602850430421,
          14.155475277371014
        ]
      }
    },
    {
      "type": "Feature",
      "properties": {
        "norad_id": 66520,
        "name": "STARLINK-35952",
        "group": "last-30-days",
        "lat": -40.74505539520498,
        "lon": -79.81675144496494,
        "alt_km": 446.6303110167255,
        "timestamp": "2025-12-16T10:53:44.204474+00:00",
        "meta_object_name": "STARLINK-35952",
        "meta_object_id": "2025-265E",
        "meta_epoch": "2025-12-15T22:00:01.999584",
        "meta_mean_motion": 15.40689902,
        "meta_eccentricity": 0.00010221,
        "meta_inclination": 43.0008,
        "meta_ra_of_asc_node": 35.69,
        "meta_arg_of_pericenter": 256.8364,
        "meta_mean_anomaly": 252.7056,
        "meta_ephemeris_type": 0,
        "meta_classification_type": "U",
        "meta_norad_cat_id": 66520,
        "meta_element_set_no": 999,
        "meta_rev_at_epoch": 550,
        "meta_bstar": 0.00026163244,
        "meta_mean_motion_dot": 0.00010637,
        "meta_mean_motion_ddot": 0,
        "tle_line1": "1 66520U 25265E   25349.91668981  .00010637  00000+0  26163-3 0  9997",
        "tle_line2": "2 66520  43.0008  35.6900 0001022 256.8364 252.7056 15.40689902  5509"
      },
      "geometry": {
        "type": "Point",
        "coordinates": [
          -79.81675144496494,
          -40.74505539520498
        ]
      }
    },
    {
      "type": "Feature",
      "properties": {
        "norad_id": 66521,
        "name": "STARLINK-35915",
        "group": "last-30-days",
        "lat": 16.315740485032897,
        "lon": 50.58297532557266,
        "alt_km": 411.80048351954883,
        "timestamp": "2025-12-16T10:53:44.204486+00:00",
        "meta_object_name": "STARLINK-35915",
        "meta_object_id": "2025-265F",
        "meta_epoch": "2025-12-15T13:08:56.619456",
        "meta_mean_motion": 15.50613283,
        "meta_eccentricity": 0.00041789,
        "meta_inclination": 42.9978,
        "meta_ra_of_asc_node": 37.5756,
        "meta_arg_of_pericenter": 292.8181,
        "meta_mean_anomaly": 67.2238,
        "meta_ephemeris_type": 0,
        "meta_classification_type": "U",
        "meta_norad_cat_id": 66521,
        "meta_element_set_no": 999,
        "meta_rev_at_epoch": 419,
        "meta_bstar": 0.0010696382,
        "meta_mean_motion_dot": 0.00063008,
        "meta_mean_motion_ddot": 0,
        "tle_line1": "1 66521U 25265F   25349.54787754  .00063008  00000+0  10696-2 0  9990",
        "tle_line2": "2 66521  42.9978  37.5756 0004178 292.8181  67.2238 15.50613283  4191"
      },
      "geometry": {
        "type": "Point",
        "coordinates": [
          50.58297532557266,
          16.315740485032897
        ]
      }
    }
  ]
}